[Satellite]
VERSION=1.1
NAME=GPS BIIA-28 (PRN 08)
NICKNAME=GPS BIIA-28 (PRN 08)
TLE1=1 25030U 97067A   15055.13755334 -.00000077  00000-0  00000+0 0  9990
TLE2=2 25030  56.9951 321.5548 0145226 206.7239  49.8858  2.00576619126809
